SENTINEL-6              
1 46984U 20086A   24266.67039881 -.00000051  00000+0  41323-4 0  9992
2 46984  66.0449   8.7965 0007804 269.2701  90.7420 12.80928160179313
